0 COSMOS 397 DEB
1 06843U 71015CK  13282.33946469  .00010184  00000-0  25493-2 0  2885
2 06843 065.6724 232.2762 0510704 060.1331 100.5584 13.94456661 75165
0 COSMOS 397 DEB
1 06843U 71015CK  13283.96957880  .00009273  00000-0  23224-2 0  2892
2 06843 065.6721 228.0672 0510724 059.3457 003.8834 13.94480538 75394
0 COSMOS 397 DEB
1 06843U 71015CK  13285.82836470  .00007342  00000-0  18434-2 0  2904
2 06843 065.6720 223.2670 0510793 058.4412 335.3346 13.94507581 75653
0 COSMOS 397 DEB
1 06843U 71015CK  13287.98780958  .00013102  00000-0  32609-2 0  2914
2 06843 065.6727 217.6902 0510886 057.3930 016.3721 13.94539709 75954
0 COSMOS 397 DEB
1 06843U 71015CK  13289.22378234  .00010451  00000-0  26070-2 0  2923
2 06843 065.6729 214.4982 0510817 056.7882 101.4527 13.94563397 76122
0 COSMOS 397 DEB
1 06843U 71015CK  13291.23065487  .00009505  00000-0  23698-2 0  2932
2 06843 065.6729 209.3158 0510978 055.8203 096.9581 13.94598682 76409
0 COSMOS 397 DEB
1 06843U 71015CK  13293.71570556  .00009470  00000-0  23580-2 0  2947
2 06843 065.6725 202.8979 0511057 054.6073 333.5103 13.94638805 76755
0 COSMOS 397 DEB
1 06843U 71015CK  13295.87459200  .00009780  00000-0  24315-2 0  2950
2 06843 065.6718 197.3217 0511094 053.5677 012.7936 13.94675124 77058
